{
  "type": "FeatureCollection",
  "features": [
    {
      "type": "Feature",
      "properties": {
        "norad_id": 66503,
        "name": "STARLINK-35917",
        "group": "last-30-days",
        "lat": -41.832141198859546,
        "lon": 8.915589871008956,
        "alt_km": 449.4106833897613,
        "timestamp": "2025-12-14T11:29:48.797185+00:00",
        "meta_object_name": "STARLINK-35917",
        "meta_object_id": "2025-263U",
        "meta_epoch": "2025-12-13T14:00:03.000384",
        "meta_mean_motion": 15.41178118,
        "meta_eccentricity": 0.00011092,
        "meta_inclination": 42.9998,
        "meta_ra_of_asc_node": 120.2176,
        "meta_arg_of_pericenter": 273.6155,
        "meta_mean_anomaly": 51.4563,
        "meta_ephemeris_type": 0,
        "meta_classification_type": "U",
        "meta_norad_cat_id": 66503,
        "meta_element_set_no": 999,
        "meta_rev_at_epoch": 577,
        "meta_bstar": -0.019319452,
        "meta_mean_motion_dot": -0.00754756,
        "meta_mean_motion_ddot": 0,
        "tle_line1": "1 66503U 25263U   25347.58336806 -.00754756  00000+0 -19319-1 0  9997",
        "tle_line2": "2 66503  42.9998 120.2176 0001109 273.6155  51.4563 15.41178118  5772"
      },
      "geometry": {
        "type": "Point",
        "coordinates": [
          8.915589871008956,
          -41.832141198859546
        ]
      }
    },
    {
      "type": "Feature",
      "properties": {
        "norad_id": 66504,
        "name": "STARLINK-35916",
        "group": "last-30-days",
        "lat": -11.324528074092198,
        "lon": 104.19724968675908,
        "alt_km": 443.2228790399158,
        "timestamp": "2025-12-14T11:29:48.797195+00:00",
        "meta_object_name": "STARLINK-35916",
        "meta_object_id": "2025-263V",
        "meta_epoch": "2025-12-12T17:33:48.907584",
        "meta_mean_motion": 15.40710087,
        "meta_eccentricity": 0.00029138,
        "meta_inclination": 43.0006,
        "meta_ra_of_asc_node": 126.6799,
        "meta_arg_of_pericenter": 281.8112,
        "meta_mean_anomaly": 78.2418,
        "meta_ephemeris_type": 0,
        "meta_classification_type": "U",
        "meta_norad_cat_id": 66504,
        "meta_element_set_no": 999,
        "meta_rev_at_epoch": 554,
        "meta_bstar": 0.0014947011,
        "meta_mean_motion_dot": 0.00062674,
        "meta_mean_motion_ddot": 0,
        "tle_line1": "1 66504U 25263V   25346.73181606  .00062674  00000+0  14947-2 0  9992",
        "tle_line2": "2 66504  43.0006 126.6799 0002913 281.8112  78.2418 15.40710087  5541"
      },
      "geometry": {
        "type": "Point",
        "coordinates": [
          104.19724968675908,
          -11.324528074092198
        ]
      }
    },
    {
      "type": "Feature",
      "properties": {
        "norad_id": 66505,
        "name": "STARLINK-34766",
        "group": "last-30-days",
        "lat": -28.022588349038163,
        "lon": 80.07381398359857,
        "alt_km": 415.4011800185235,
        "timestamp": "2025-12-14T11:29:48.797205+00:00",
        "meta_object_name": "STARLINK-34766",
        "meta_object_id": "2025-263W",
        "meta_epoch": "2025-12-12T17:56:57.882624",
        "meta_mean_motion": 15.50613801,
        "meta_eccentricity": 0.00016181,
        "meta_inclination": 42.9974,
        "meta_ra_of_asc_node": 125.0394,
        "meta_arg_of_pericenter": 278.9286,
        "meta_mean_anomaly": 81.1391,
        "meta_ephemeris_type": 0,
        "meta_classification_type": "U",
        "meta_norad_cat_id": 66505,
        "meta_element_set_no": 999,
        "meta_rev_at_epoch": 556,
        "meta_bstar": 0.0019225717,
        "meta_mean_motion_dot": 0.00114249,
        "meta_mean_motion_ddot": 0,
        "tle_line1": "1 66505U 25263W   25346.74789216  .00114249  00000+0  19226-2 0  9996",
        "tle_line2": "2 66505  42.9974 125.0394 0001618 278.9286  81.1391 15.50613801  5560"
      },
      "geometry": {
        "type": "Point",
        "coordinates": [
          80.07381398359857,
          -28.022588349038163
        ]
      }
    },
    {
      "type": "Feature",
      "properties": {
        "norad_id": 66506,
        "name": "STARLINK-34765",
        "group": "last-30-days",
        "lat": -27.261470474779752,
        "lon": 81.34332541696253,
        "alt_km": 415.58043516250746,
        "timestamp": "2025-12-14T11:29:48.797218+00:00",
        "meta_object_name": "STARLINK-34765",
        "meta_object_id": "2025-263X",
        "meta_epoch": "2025-12-13T09:24:02.209536",
        "meta_mean_motion": 15.50662448,
        "meta_eccentricity": 0.00019802,
        "meta_inclination": 43.0016,
        "meta_ra_of_asc_node": 121.276,
        "meta_arg_of_pericenter": 266.2517,
        "meta_mean_anomaly": 93.8117,
        "meta_ephemeris_type": 0,
        "meta_classification_type": "U",
        "meta_norad_cat_id": 66506,
        "meta_element_set_no": 999,
        "meta_rev_at_epoch": 566,
        "meta_bstar": 0.0020838032,
        "meta_mean_motion_dot": 0.00124234,
        "meta_mean_motion_ddot": 0,
        "tle_line1": "1 66506U 25263X   25347.39169224  .00124234  00000+0  20838-2 0  9996",
        "tle_line2": "2 66506  43.0016 121.2760 0001980 266.2517  93.8117 15.50662448  5662"
      },
      "geometry": {
        "type": "Point",
        "coordinates": [
          81.34332541696253,
          -27.261470474779752
        ]
      }
    },
    {
      "type": "Feature",
      "properties": {
        "norad_id": 66507,
        "name": "STARLINK-34767",
        "group": "last-30-days",
        "lat": -33.55870464533017,
        "lon": -19.498488267323737,
        "alt_km": 446.22576537615623,
        "timestamp": "2025-12-14T11:29:48.797228+00:00",
        "meta_object_name": "STARLINK-34767",
        "meta_object_id": "2025-263Y",
        "meta_epoch": "2025-12-13T14:00:03.000384",
        "meta_mean_motion": 15.40666054,
        "meta_eccentricity": 0.00015184,
        "meta_inclination": 42.9996,
        "meta_ra_of_asc_node": 120.2759,
        "meta_arg_of_pericenter": 276.4158,
        "meta_mean_anomaly": 24.0017,
        "meta_ephemeris_type": 0,
        "meta_classification_type": "U",
        "meta_norad_cat_id": 66507,
        "meta_element_set_no": 999,
        "meta_rev_at_epoch": 577,
        "meta_bstar": 0.00068396177,
        "meta_mean_motion_dot": 0.00028341,
        "meta_mean_motion_ddot": 0,
        "tle_line1": "1 66507U 25263Y   25347.58336806  .00028341  00000+0  68396-3 0  9994",
        "tle_line2": "2 66507  42.9996 120.2759 0001518 276.4158  24.0017 15.40666054  5779"
      },
      "geometry": {
        "type": "Point",
        "coordinates": [
          -19.498488267323737,
          -33.55870464533017
        ]
      }
    },
    {
      "type": "Feature",
      "properties": {
        "norad_id": 66508,
        "name": "STARLINK-35608",
        "group": "last-30-days",
        "lat": -41.41049989789006,
        "lon": 43.82981403528113,
        "alt_km": 447.04578461728215,
        "timestamp": "2025-12-14T11:29:48.797239+00:00",
        "meta_object_name": "STARLINK-35608",
        "meta_object_id": "2025-263Z",
        "meta_epoch": "2025-12-13T14:00:03.000384",
        "meta_mean_motion": 15.44289027,
        "meta_eccentricity": 0.00011833,
        "meta_inclination": 42.9997,
        "meta_ra_of_asc_node": 120.1691,
        "meta_arg_of_pericenter": 269.261,
        "meta_mean_anomaly": 75.7736,
        "meta_ephemeris_type": 0,
        "meta_classification_type": "U",
        "meta_norad_cat_id": 66508,
        "meta_element_set_no": 999,
        "meta_rev_at_epoch": 577,
        "meta_bstar": -0.048715883,
        "meta_mean_motion_dot": -0.02041588,
        "meta_mean_motion_ddot": 0,
        "tle_line1": "1 66508U 25263Z   25347.58336806 -.02041588  00000+0 -48716-1 0  9999",
        "tle_line2": "2 66508  42.9997 120.1691 0001183 269.2610  75.7736 15.44289027  5772"
      },
      "geometry": {
        "type": "Point",
        "coordinates": [
          43.82981403528113,
          -41.41049989789006
        ]
      }
    },
    {
      "type": "Feature",
      "properties": {
        "norad_id": 66509,
        "name": "STARLINK-35598",
        "group": "last-30-days",
        "lat": -16.944172635762353,
        "lon": 95.78289362890526,
        "alt_km": 415.42149095617333,
        "timestamp": "2025-12-14T11:29:48.797249+00:00",
        "meta_object_name": "STARLINK-35598",
        "meta_object_id": "2025-263AA",
        "meta_epoch": "2025-12-13T15:30:37.328832",
        "meta_mean_motion": 15.50671075,
        "meta_eccentricity": 0.00020834,
        "meta_inclination": 43.0026,
        "meta_ra_of_asc_node": 119.738,
        "meta_arg_of_pericenter": 262.3842,
        "meta_mean_anomaly": 97.6781,
        "meta_ephemeris_type": 0,
        "meta_classification_type": "U",
        "meta_norad_cat_id": 66509,
        "meta_element_set_no": 999,
        "meta_rev_at_epoch": 570,
        "meta_bstar": 0.0016256371,
        "meta_mean_motion_dot": 0.00096529,
        "meta_mean_motion_ddot": 0,
        "tle_line1": "1 66509U 25263AA  25347.64626538  .00096529  00000+0  16256-2 0  9997",
        "tle_line2": "2 66509  43.0026 119.7380 0002083 262.3842  97.6781 15.50671075  5709"
      },
      "geometry": {
        "type": "Point",
        "coordinates": [
          95.78289362890526,
          -16.944172635762353
        ]
      }
    }
  ]
}